{"spkid": "20378160", "covariance": {"data": [["2.630685507352695E-14", "-2.390562027205559E-14", "-4.478146762799107E-13", "-1.445318532260364E-12", "1.108060576636585E-12", "9.650197129087004E-13"], ["-2.390562027205559E-14", "2.172528135115205E-14", "4.034010124889343E-13", "1.313504149134089E-12", "-1.011522137890743E-12", "-8.775676578306381E-13"], ["-4.478146762799107E-13", "4.034010124889343E-13", "3.744088083258673E-10", "7.682280702650289E-11", "1.438750853019829E-10", "-2.87630563172436E-11"], ["-1.445318532260364E-12", "1.313504149134089E-12", "7.682280702650289E-11", "6.651683001678025E-10", "-6.179364511410705E-10", "-9.84127046443165E-11"], ["1.108060576636585E-12", "-1.011522137890743E-12", "1.438750853019829E-10", "-6.179364511410705E-10", "7.254938330155349E-10", "8.244644568914011E-11"], ["9.650197129087004E-13", "-8.775676578306381E-13", "-2.87630563172436E-11", "-9.84127046443165E-11", "8.244644568914011E-11", "6.112814594869745E-11"]], "elements": [{"label": "e", "value": ".300209391248789", "title": "eccentricity", "units": null, "sigma": 1.62193881122337e-07, "name": "e"}, {"units": "au", "value": ".6414196566839533", "title": "perihelion distance", "sigma": 1.4739498414516e-07, "name": "q", "label": "q"}, {"label": "tp", "units": "TDB", "title": "time of perihelion passage", "value": "2458397.455590896005", "sigma": 1.93496462067364e-05, "name": "tp"}, {"name": "om", "sigma": 2.57908569103045e-05, "units": "deg", "value": "328.0091994783061", "title": "longitude of the ascending node", "label": "node"}, {"label": "peri", "units": "deg", "title": "argument of perihelion", "value": "290.9212881158382", "sigma": 2.693499272351e-05, "name": "w"}, {"label": "i", "sigma": 7.81844907566056e-06, "name": "i", "units": "deg", "title": "inclination", "value": "11.64331812698465"}], "labels": ["e", "q", "tp", "node", "peri", "i"], "epoch": "2458271.5"}, "elements": [{"title": "eccentricity", "value": ".3001980567339178", "units": null, "sigma": "1.6226E-7", "name": "e", "label": "e"}, {"label": "a", "value": ".9164992986568196", "title": "semi-major axis", "units": "au", "name": "a", "sigma": "2.7068E-9"}, {"label": "q", "sigma": "1.4732E-7", "name": "q", "units": "au", "title": "perihelion distance", "value": ".6413679902020438"}, {"label": "i", "value": "11.6433552878092", "title": "inclination; angle with respect to x-y ecliptic plane", "units": "deg", "name": "i", "sigma": "7.8233E-6"}, {"units": "deg", "value": "327.9480383385676", "title": "longitude of the ascending node", "sigma": "2.5763E-5", "name": "om", "label": "node"}, {"units": "deg", "title": "argument of perihelion", "value": "290.9596998932006", "sigma": "2.6935E-5", "name": "w", "label": "peri"}, {"label": "M", "sigma": "2.2747E-5", "name": "ma", "title": "mean anomaly", "value": "268.590356739869", "units": "deg"}, {"label": "tp", "name": "tp", "sigma": "2.0381E-5", "title": "time of perihelion passage", "value": "2461281.874090124530", "units": "TDB"}, {"label": "period", "units": "d", "title": "sidereal orbital period", "value": "320.4768271709017", "sigma": "1.4198E-6", "name": "per"}, {"label": "n", "name": "n", "sigma": "4.9765E-9", "units": "deg/d", "title": "mean motion", "value": "1.123326148657924"}, {"label": "Q", "title": "aphelion distance", "value": "1.191630607111595", "units": "au", "name": "ad", "sigma": "3.5194E-9"}], "epoch": "2461200.5"}